{
"type": "FeatureCollection",
"name": "facilities",
"crs": { "type": "name", "properties": { "name": "urn:ogc:def:crs:OGC:1.3:CRS84" } },
"features": [
{ "type": "Feature", "properties": { "facility_id": "HF-0002", "name": "Ngewa Health Centre", "county": "Kiambu", "level": 3, "beds": 47, "operational": true }, "geometry": { "type": "Point", "coordinates": [ 36.62885, -1.177803 ] } },
{ "type": "Feature", "properties": { "facility_id": "HF-0011", "name": "Githunguri Nursing Home", "county": "Kiambu", "level": 3, "beds": 10, "operational": true }, "geometry": { "type": "Point", "coordinates": [ 36.808097, -0.977189 ] } },
{ "type": "Feature", "properties": { "facility_id": "HF-0012", "name": "Ting'ang'a Dispensary", "county": "Kiambu", "level": 2, "beds": 4, "operational": true }, "geometry": { "type": "Point", "coordinates": [ 36.692238, -1.031732 ] } },
{ "type": "Feature", "properties": { "facility_id": "HF-0013", "name": "Kanunga Nursing Home", "county": "Kiambu", "level": 3, "beds": 14, "operational": true }, "geometry": { "type": "Point", "coordinates": [ 36.665855, -1.039994 ] } },
{ "type": "Feature", "properties": { "facility_id": "HF-0018", "name": "Kamwangi Dispensary", "county": "Kiambu", "level": 2, "beds": 6, "operational": true }, "geometry": { "type": "Point", "coordinates": [ 36.557871, -0.921669 ] } },
{ "type": "Feature", "properties": { "facility_id": "HF-0021", "name": "Githunguri Level 5 Hospital", "county": "Kiambu", "level": 5, "beds": 184, "operational": true }, "geometry": { "type": "Point", "coordinates": [ 36.609069, -0.897704 ] } },
{ "type": "Feature", "properties": { "facility_id": "HF-0028", "name": "Ndeiya Sub-County Hospital", "county": "Kiambu", "level": 4, "beds": 152, "operational": true }, "geometry": { "type": "Point", "coordinates": [ 36.880378, -1.08255 ] } },
{ "type": "Feature", "properties": { "facility_id": "HF-0030", "name": "Karuri Sub-County Hospital", "county": "Kiambu", "level": 4, "beds": 108, "operational": true }, "geometry": { "type": "Point", "coordinates": [ 36.968791, -1.092268 ] } },
{ "type": "Feature", "properties": { "facility_id": "HF-0046", "name": "Juja Medical Clinic", "county": "Kiambu", "level": 2, "beds": 5, "operational": true }, "geometry": { "type": "Point", "coordinates": [ 36.84792, -1.021844 ] } },
{ "type": "Feature", "properties": { "facility_id": "HF-0054", "name": "Kikuyu Health Centre", "county": "Kiambu", "level": 3, "beds": 45, "operational": false }, "geometry": { "type": "Point", "coordinates": [ 36.846252, -0.985171 ] } },
{ "type": "Feature", "properties": { "facility_id": "HF-0056", "name": "Tigoni Level 5 Hospital", "county": "Kiambu", "level": 5, "beds": 377, "operational": true }, "geometry": { "type": "Point", "coordinates": [ 37.081927, -1.07034 ] } },
{ "type": "Feature", "properties": { "facility_id": "HF-0060", "name": "Gatundu Medical Clinic", "county": "Kiambu", "level": 2, "beds": 5, "operational": true }, "geometry": { "type": "Point", "coordinates": [ 37.079136, -1.153762 ] } },
{ "type": "Feature", "properties": { "facility_id": "HF-0066", "name": "Gatundu Nursing Home", "county": "Kiambu", "level": 3, "beds": 39, "operational": true }, "geometry": { "type": "Point", "coordinates": [ 36.762693, -1.019546 ] } },
{ "type": "Feature", "properties": { "facility_id": "HF-0070", "name": "Juja Health Centre", "county": "Kiambu", "level": 3, "beds": 47, "operational": true }, "geometry": { "type": "Point", "coordinates": [ 36.918075, -1.014514 ] } },
{ "type": "Feature", "properties": { "facility_id": "HF-0074", "name": "Riabai Medical Clinic", "county": "Kiambu", "level": 2, "beds": 5, "operational": true }, "geometry": { "type": "Point", "coordinates": [ 36.670016, -0.897691 ] } },
{ "type": "Feature", "properties": { "facility_id": "HF-0083", "name": "Tigoni Level 5 Hospital II", "county": "Kiambu", "level": 5, "beds": 249, "operational": true }, "geometry": { "type": "Point", "coordinates": [ 36.856425, -1.095711 ] } },
{ "type": "Feature", "properties": { "facility_id": "HF-0085", "name": "Ngewa Nursing Home", "county": "Kiambu", "level": 3, "beds": 12, "operational": false }, "geometry": { "type": "Point", "coordinates": [ 36.599193, -1.249202 ] } },
{ "type": "Feature", "properties": { "facility_id": "HF-0088", "name": "Kabete Nursing Home", "county": "Kiambu", "level": 3, "beds": 35, "operational": false }, "geometry": { "type": "Point", "coordinates": [ 36.648856, -0.982038 ] } },
{ "type": "Feature", "properties": { "facility_id": "HF-0089", "name": "Ngewa Sub-County Hospital", "county": "Kiambu", "level": 4, "beds": 153, "operational": true }, "geometry": { "type": "Point", "coordinates": [ 36.573514, -1.286997 ] } },
{ "type": "Feature", "properties": { "facility_id": "HF-0095", "name": "Kabete Nursing Home II", "county": "Kiambu", "level": 3, "beds": 26, "operational": true }, "geometry": { "type": "Point", "coordinates": [ 37.055256, -1.19286 ] } },
{ "type": "Feature", "properties": { "facility_id": "HF-0097", "name": "Karuri Level 5 Hospital", "county": "Kiambu", "level": 5, "beds": 193, "operational": false }, "geometry": { "type": "Point", "coordinates": [ 37.11604, -1.162977 ] } },
{ "type": "Feature", "properties": { "facility_id": "HF-0098", "name": "Ruiru Medical Clinic", "county": "Kiambu", "level": 2, "beds": 2, "operational": true }, "geometry": { "type": "Point", "coordinates": [ 36.643339, -0.907983 ] } },
{ "type": "Feature", "properties": { "facility_id": "HF-0101", "name": "Ting'ang'a Nursing Home", "county": "Kiambu", "level": 3, "beds": 12, "operational": true }, "geometry": { "type": "Point", "coordinates": [ 37.135339, -1.175734 ] } },
{ "type": "Feature", "properties": { "facility_id": "HF-0102", "name": "Githunguri Sub-County Hospital", "county": "Kiambu", "level": 4, "beds": 135, "operational": true }, "geometry": { "type": "Point", "coordinates": [ 36.942477, -1.084828 ] } },
{ "type": "Feature", "properties": { "facility_id": "HF-0105", "name": "Tigoni Nursing Home", "county": "Kiambu", "level": 3, "beds": 40, "operational": true }, "geometry": { "type": "Point", "coordinates": [ 36.591179, -0.91194 ] } },
{ "type": "Feature", "properties": { "facility_id": "HF-0106", "name": "Ruiru Level 5 Hospital", "county": "Kiambu", "level": 5, "beds": 204, "operational": true }, "geometry": { "type": "Point", "coordinates": [ 36.769267, -1.028413 ] } },
{ "type": "Feature", "properties": { "facility_id": "HF-0119", "name": "Kabete Medical Clinic", "county": "Kiambu", "level": 2, "beds": 1, "operational": true }, "geometry": { "type": "Point", "coordinates": [ 36.941208, -1.163464 ] } },
{ "type": "Feature", "properties": { "facility_id": "HF-0123", "name": "Ruiru Health Centre", "county": "Kiambu", "level": 3, "beds": 32, "operational": true }, "geometry": { "type": "Point", "coordinates": [ 36.71698, -0.893475 ] } },
{ "type": "Feature", "properties": { "facility_id": "HF-0130", "name": "Ting'ang'a Medical Clinic", "county": "Kiambu", "level": 2, "beds": 1, "operational": true }, "geometry": { "type": "Point", "coordinates": [ 36.606089, -1.258367 ] } },
{ "type": "Feature", "properties": { "facility_id": "HF-0134", "name": "Lari Health Centre", "county": "Kiambu", "level": 3, "beds": 31, "operational": true }, "geometry": { "type": "Point", "coordinates": [ 37.000642, -1.032906 ] } },
{ "type": "Feature", "properties": { "facility_id": "HF-0136", "name": "Lari Medical Clinic", "county": "Kiambu", "level": 2, "beds": 5, "operational": true }, "geometry": { "type": "Point", "coordinates": [ 37.016832, -1.065037 ] } },
{ "type": "Feature", "properties": { "facility_id": "HF-0139", "name": "Karuri Level 5 Hospital II", "county": "Kiambu", "level": 5, "beds": 341, "operational": true }, "geometry": { "type": "Point", "coordinates": [ 37.059148, -1.19131 ] } },
{ "type": "Feature", "properties": { "facility_id": "HF-0140", "name": "Kamwangi Nursing Home", "county": "Kiambu", "level": 3, "beds": 23, "operational": true }, "geometry": { "type": "Point", "coordinates": [ 36.599875, -1.031782 ] } },
{ "type": "Feature", "properties": { "facility_id": "HF-0145", "name": "Riabai Dispensary", "county": "Kiambu", "level": 2, "beds": 2, "operational": true }, "geometry": { "type": "Point", "coordinates": [ 36.648292, -0.817488 ] } },
{ "type": "Feature", "properties": { "facility_id": "HF-0151", "name": "Gatundu Sub-County Hospital", "county": "Kiambu", "level": 4, "beds": 139, "operational": false }, "geometry": { "type": "Point", "coordinates": [ 37.139829, -1.224372 ] } },
{ "type": "Feature", "properties": { "facility_id": "HF-0164", "name": "Githunguri Nursing Home II", "county": "Kiambu", "level": 3, "beds": 18, "operational": true }, "geometry": { "type": "Point", "coordinates": [ 36.769423, -1.125341 ] } },
{ "type": "Feature", "properties": { "facility_id": "HF-0165", "name": "Ndeiya Medical Clinic", "county": "Kiambu", "level": 2, "beds": 2, "operational": true }, "geometry": { "type": "Point", "coordinates": [ 37.289287, -1.054835 ] } },
{ "type": "Feature", "properties": { "facility_id": "HF-0169", "name": "Ruiru Nursing Home", "county": "Kiambu", "level": 3, "beds": 22, "operational": true }, "geometry": { "type": "Point", "coordinates": [ 36.798636, -1.130992 ] } },
{ "type": "Feature", "properties": { "facility_id": "HF-0170", "name": "Kamwangi Nursing Home II", "county": "Kiambu", "level": 3, "beds": 12, "operational": true }, "geometry": { "type": "Point", "coordinates": [ 36.628402, -0.789324 ] } },
{ "type": "Feature", "properties": { "facility_id": "HF-0179", "name": "Kabete Sub-County Hospital", "county": "Kiambu", "level": 4, "beds": 104, "operational": true }, "geometry": { "type": "Point", "coordinates": [ 36.75932, -0.959234 ] } },
{ "type": "Feature", "properties": { "facility_id": "HF-0180", "name": "Ruiru Health Centre II", "county": "Kiambu", "level": 3, "beds": 27, "operational": true }, "geometry": { "type": "Point", "coordinates": [ 36.84878, -1.098459 ] } },
{ "type": "Feature", "properties": { "facility_id": "HF-0182", "name": "Kamwangi Health Centre", "county": "Kiambu", "level": 3, "beds": 39, "operational": true }, "geometry": { "type": "Point", "coordinates": [ 36.657173, -1.028946 ] } },
{ "type": "Feature", "properties": { "facility_id": "HF-0192", "name": "Lari Sub-County Hospital", "county": "Kiambu", "level": 4, "beds": 142, "operational": false }, "geometry": { "type": "Point", "coordinates": [ 36.912331, -1.077305 ] } },
{ "type": "Feature", "properties": { "facility_id": "HF-0198", "name": "Riabai Level 5 Hospital", "county": "Kiambu", "level": 5, "beds": 335, "operational": true }, "geometry": { "type": "Point", "coordinates": [ 36.653444, -1.120378 ] } },
{ "type": "Feature", "properties": { "facility_id": "HF-0199", "name": "Ting'ang'a Dispensary II", "county": "Kiambu", "level": 2, "beds": 0, "operational": true }, "geometry": { "type": "Point", "coordinates": [ 36.619072, -0.88298 ] } },
{ "type": "Feature", "properties": { "facility_id": "HF-0204", "name": "Ngewa Dispensary", "county": "Kiambu", "level": 2, "beds": 7, "operational": true }, "geometry": { "type": "Point", "coordinates": [ 36.953902, -0.996853 ] } },
{ "type": "Feature", "properties": { "facility_id": "HF-0205", "name": "Ngewa Nursing Home II", "county": "Kiambu", "level": 3, "beds": 19, "operational": true }, "geometry": { "type": "Point", "coordinates": [ 36.801534, -0.985956 ] } },
{ "type": "Feature", "properties": { "facility_id": "HF-0212", "name": "Lari Sub-County Hospital II", "county": "Kiambu", "level": 4, "beds": 117, "operational": true }, "geometry": { "type": "Point", "coordinates": [ 37.341683, -1.106561 ] } },
{ "type": "Feature", "properties": { "facility_id": "HF-0218", "name": "Lari Sub-County Hospital III", "county": "Kiambu", "level": 4, "beds": 128, "operational": true }, "geometry": { "type": "Point", "coordinates": [ 36.82345, -0.978127 ] } },
{ "type": "Feature", "properties": { "facility_id": "HF-0220", "name": "Juja Level 5 Hospital", "county": "Kiambu", "level": 5, "beds": 301, "operational": true }, "geometry": { "type": "Point", "coordinates": [ 36.673763, -0.804421 ] } },
{ "type": "Feature", "properties": { "facility_id": "HF-0221", "name": "Gatundu Health Centre", "county": "Kiambu", "level": 3, "beds": 34, "operational": true }, "geometry": { "type": "Point", "coordinates": [ 36.740803, -0.875661 ] } },
{ "type": "Feature", "properties": { "facility_id": "HF-0230", "name": "Kabete Nursing Home III", "county": "Kiambu", "level": 3, "beds": 38, "operational": true }, "geometry": { "type": "Point", "coordinates": [ 36.948103, -1.090391 ] } },
{ "type": "Feature", "properties": { "facility_id": "HF-0231", "name": "Gatundu Sub-County Hospital II", "county": "Kiambu", "level": 4, "beds": 95, "operational": true }, "geometry": { "type": "Point", "coordinates": [ 36.629447, -0.864187 ] } },
{ "type": "Feature", "properties": { "facility_id": "HF-0234", "name": "Limuru Medical Clinic", "county": "Kiambu", "level": 2, "beds": 6, "operational": true }, "geometry": { "type": "Point", "coordinates": [ 36.616834, -1.049403 ] } },
{ "type": "Feature", "properties": { "facility_id": "HF-0240", "name": "Juja Health Centre II", "county": "Kiambu", "level": 3, "beds": 36, "operational": true }, "geometry": { "type": "Point", "coordinates": [ 36.7889, -1.171055 ] } },
{ "type": "Feature", "properties": { "facility_id": "HF-0244", "name": "Kabete Medical Clinic II", "county": "Kiambu", "level": 2, "beds": 4, "operational": true }, "geometry": { "type": "Point", "coordinates": [ 36.868949, -1.171114 ] } },
{ "type": "Feature", "properties": { "facility_id": "HF-0245", "name": "Gatundu Sub-County Hospital III", "county": "Kiambu", "level": 4, "beds": 69, "operational": true }, "geometry": { "type": "Point", "coordinates": [ 36.777717, -0.974665 ] } },
{ "type": "Feature", "properties": { "facility_id": "HF-0249", "name": "Juja Dispensary", "county": "Kiambu", "level": 2, "beds": 2, "operational": true }, "geometry": { "type": "Point", "coordinates": [ 36.671381, -1.186882 ] } },
{ "type": "Feature", "properties": { "facility_id": "HF-0252", "name": "Kanunga Health Centre", "county": "Kiambu", "level": 3, "beds": 39, "operational": true }, "geometry": { "type": "Point", "coordinates": [ 36.965808, -1.210112 ] } },
{ "type": "Feature", "properties": { "facility_id": "HF-0253", "name": "Lari Health Centre II", "county": "Kiambu", "level": 3, "beds": 18, "operational": true }, "geometry": { "type": "Point", "coordinates": [ 36.798761, -0.962638 ] } }
]
}
